[{"OBJECT_NAME":"STARLINK-5819","OBJECT_ID":"2023-028AR","EPOCH":"2026-03-09T20:46:13.421568","MEAN_MOTION":14.98332198,"ECCENTRICITY":0.00027975,"INCLINATION":69.9999,"RA_OF_ASC_NODE":223.8414,"ARG_OF_PERICENTER":270.8149,"MEAN_ANOMALY":89.269,"EPHEMERIS_TYPE":0,"CLASSIFICATION_TYPE":"U","NORAD_CAT_ID":55780,"ELEMENT_SET_NO":999,"REV_AT_EPOCH":16656,"BSTAR":4.1584442e-5,"MEAN_MOTION_DOT":4.03e-6,"MEAN_MOTION_DDOT":0},{"OBJECT_NAME":"PSLV DEB","OBJECT_ID":"2001-049QE","EPOCH":"2026-03-03T09:16:25.774752","MEAN_MOTION":14.97819767,"ECCENTRICITY":0.00185863,"INCLINATION":98.8591,"RA_OF_ASC_NODE":276.9323,"ARG_OF_PERICENTER":25.6411,"MEAN_ANOMALY":334.5725,"EPHEMERIS_TYPE":0,"CLASSIFICATION_TYPE":"U","NORAD_CAT_ID":35346,"ELEMENT_SET_NO":999,"REV_AT_EPOCH":24399,"BSTAR":0.0023148999,"MEAN_MOTION_DOT":0.00027324,"MEAN_MOTION_DDOT":0}]
